NORAD_CAT_ID,OBJECT_NAME,OBJECT_TYPE,EPOCH,MEAN_MOTION,ECCENTRICITY,INCLINATION,RA_OF_ASC_NODE,ARG_OF_PERICENTER,MEAN_ANOMALY,BSTAR,MEAN_MOTION_DOT,MEAN_MOTION_DDOT,TLE_LINE0,TLE_LINE1,TLE_LINE2,SEMIMAJOR_AXIS,PERIOD,APOGEE,PERIGEE,DECAYED
52998.0,STARLINK-4254,PAYLOAD,2024-06-19 07:53:18,15.08848039,0.0001294,53.2192,34.8591,92.5847,267.5293,0.00016249,2.3e-05,0.0,0 STARLINK-4254,1 52998U 22076N   24171.32869054  .00002300  00000-0  16249-3 0  9992,2 52998  53.2192  34.8591 0001294  92.5847 267.5293 15.08848039108456,6917.856,95.437,540.616,538.826,0.0
52998.0,STARLINK-4254,PAYLOAD,2024-06-19 14:14:52,15.08834358,0.0001905,53.2189,33.6698,83.1382,276.9826,0.00012543,1.708e-05,0.0,0 STARLINK-4254,1 52998U 22076N   24171.59366282  .00001708  00000-0  12543-3 0  9990,2 52998  53.2189  33.6698 0001905  83.1382 276.9826 15.08834358108024,6917.898,95.438,541.08,538.445,0.0
52998.0,STARLINK-4254,PAYLOAD,2024-06-19 20:36:25,15.08833282,0.0001381,53.219,32.482,92.3059,267.8092,3.5348e-05,2.75e-06,0.0,0 STARLINK-4254,1 52998U 22076N   24171.85862607  .00000275  00000-0  35348-4 0  9998,2 52998  53.2190  32.4820 0001381  92.3059 267.8092 15.08833282108536,6917.901,95.438,540.721,538.811,0.0
52998.0,STARLINK-4254,PAYLOAD,2024-06-19 22:11:48,15.08835353,0.0001357,53.2191,32.1846,90.5853,269.5294,5.1876e-05,5.38e-06,0.0,0 STARLINK-4254,1 52998U 22076N   24171.92486466  .00000538  00000-0  51876-4 0  9997,2 52998  53.2191  32.1846 0001357  90.5853 269.5294 15.08835353108070,6917.895,95.438,540.698,538.821,0.0
52998.0,STARLINK-4254,PAYLOAD,2024-06-20 07:44:06,15.08842347,0.000136,53.2188,30.3999,89.1481,270.9667,7.6881e-05,9.36e-06,0.0,0 STARLINK-4254,1 52998U 22076N   24172.32230008  .00000936  00000-0  76881-4 0  9996,2 52998  53.2188  30.3999 0001360  89.1481 270.9667 15.08842347108138,6917.873,95.437,540.679,538.797,0.0
52998.0,STARLINK-4254,PAYLOAD,2024-06-20 22:02:35,15.08840724,0.0001321,53.2188,27.7213,77.8505,282.2635,-5.528e-05,-1.168e-05,0.0,0 STARLINK-4254,1 52998U 22076N   24172.91846556 -.00001168  00000-0 -55280-4 0  9992,2 52998  53.2188  27.7213 0001321  77.8505 282.2635 15.08840724108223,6917.878,95.438,540.657,538.829,0.0
52998.0,STARLINK-4254,PAYLOAD,2024-06-20 23:37:58,15.08843127,0.0001373,53.219,27.4217,75.6612,284.4533,-4.056e-05,-9.33e-06,0.0,0 STARLINK-4254,1 52998U 22076N   24172.98470321 -.00000933  00000-0 -40560-4 0  9996,2 52998  53.2190  27.4217 0001373  75.6612 284.4533 15.08843127108703,6917.871,95.437,540.686,538.786,0.0
52998.0,STARLINK-4254,PAYLOAD,2024-06-21 20:17:59,15.08841185,0.0001422,53.2189,23.5578,83.4407,276.6747,5.3432e-05,5.63e-06,0.0,0 STARLINK-4254,1 52998U 22076N   24173.84582265  .00000563  00000-0  53432-4 0  9992,2 52998  53.2189  23.5578 0001422  83.4407 276.6747 15.08841185108366,6917.877,95.437,540.725,538.758,0.0
52998.0,STARLINK-4254,PAYLOAD,2024-06-22 13:47:13,15.08838076,0.0001343,53.2184,20.2858,86.3541,273.7604,0.00011671,1.57e-05,0.0,0 STARLINK-4254,1 52998U 22076N   24174.57446297  .00001570  00000-0  11671-3 0  9994,2 52998  53.2184  20.2858 0001343  86.3541 273.7604 15.08838076108948,6917.886,95.438,540.68,538.822,0.0
52998.0,STARLINK-4254,PAYLOAD,2024-06-22 20:08:46,15.08841834,0.000125,53.2185,19.0966,86.2094,273.9041,7.9293e-05,9.74e-06,0.0,0 STARLINK-4254,1 52998U 22076N   24174.83942197  .00000974  00000-0  79293-4 0  9995,2 52998  53.2185  19.0966 0001250  86.2094 273.9041 15.08841834108510,6917.875,95.437,540.605,538.875,0.0
52998.0,STARLINK-4254,PAYLOAD,2024-06-23 13:38:00,15.08841548,0.0001402,53.2191,15.8253,105.9753,254.1394,6.1113e-05,6.85e-06,0.0,0 STARLINK-4254,1 52998U 22076N   24175.56806149  .00000685  00000-0  61113-4 0  9993,2 52998  53.2191  15.8253 0001402 105.9753 254.1394 15.08841548108626,6917.876,95.437,540.711,538.771,0.0
52998.0,STARLINK-4254,PAYLOAD,2024-06-23 19:59:32,15.08841967,0.0001326,53.2189,14.6361,105.3727,254.7412,5.7599e-05,6.29e-06,0.0,0 STARLINK-4254,1 52998U 22076N   24175.83302081  .00000629  00000-0  57599-4 0  9990,2 52998  53.2189  14.6361 0001326 105.3727 254.7412 15.08841967109139,6917.874,95.437,540.657,538.822,0.0
52998.0,STARLINK-4254,PAYLOAD,2024-06-24 18:14:57,15.08837043,0.0001318,53.2186,10.4731,106.2898,253.8239,1.632e-05,-2.8e-07,0.0,0 STARLINK-4254,1 52998U 22076N   24176.76038541 -.00000028  00000-0  16320-4 0  9991,2 52998  53.2186  10.4731 0001318 106.2898 253.8239 15.08837043109273,6917.889,95.438,540.666,538.843,0.0
52998.0,STARLINK-4254,PAYLOAD,2024-06-25 21:16:30,15.08840348,0.0001387,53.2186,5.418,111.9772,248.1368,5.7206e-05,6.23e-06,0.0,0 STARLINK-4254,1 52998U 22076N   24177.88646373  .00000623  00000-0  57206-4 0  9991,2 52998  53.2186   5.4180 0001387 111.9772 248.1368 15.08840348108973,6917.879,95.438,540.704,538.785,0.0
52998.0,STARLINK-4254,PAYLOAD,2024-06-27 05:04:13,15.08831245,0.0001354,53.2188,359.4708,69.3898,290.7239,0.00012679,1.73e-05,0.0,0 STARLINK-4254,1 52998U 22076N   24179.21127310  .00001730  00000-0  12679-3 0  9999,2 52998  53.2188 359.4708 0001354  69.3898 290.7239 15.08831245109643,6917.907,95.438,540.709,538.835,0.0
52998.0,STARLINK-4254,PAYLOAD,2024-06-27 19:22:42,15.0884122,0.0001171,53.2184,356.7942,83.589,276.5235,2.7099e-05,1.43e-06,0.0,0 STARLINK-4254,1 52998U 22076N   24179.80743095  .00000143  00000-0  27099-4 0  9998,2 52998  53.2184 356.7942 0001171  83.5890 276.5235 15.08841220109266,6917.877,95.437,540.552,538.932,0.0
52998.0,STARLINK-4254,PAYLOAD,2024-06-28 04:55:00,15.08844482,0.0001155,53.2185,355.0103,88.9933,271.1192,7.1008e-05,8.43e-06,0.0,0 STARLINK-4254,1 52998U 22076N   24180.20486738  .00000843  00000-0  71008-4 0  9998,2 52998  53.2185 355.0103 0001155  88.9933 271.1192 15.08844482109791,6917.867,95.437,540.531,538.933,0.0
52998.0,STARLINK-4254,PAYLOAD,2024-06-28 19:13:28,15.08848171,0.000125,53.2183,352.3365,93.1108,267.0027,0.00025775,3.817e-05,0.0,0 STARLINK-4254,1 52998U 22076N   24180.80101899  .00003817  00000-0  25775-3 0  9999,2 52998  53.2183 352.3365 0001250  93.1108 267.0027 15.08848171109416,6917.855,95.437,540.585,538.856,0.0
52998.0,STARLINK-4254,PAYLOAD,2024-06-29 04:45:46,15.08855459,0.0001054,53.2186,350.5452,78.2671,281.8439,0.00031185,4.681e-05,0.0,0 STARLINK-4254,1 52998U 22076N   24181.19844957  .00004681  00000-0  31185-3 0  9993,2 52998  53.2186 350.5452 0001054  78.2671 281.8439 15.08855459109943,6917.833,95.437,540.427,538.969,0.0
52998.0,STARLINK-4254,PAYLOAD,2024-06-29 11:07:21,15.08826807,0.0001608,53.218,349.3629,77.158,282.9592,4.252e-05,3.89e-06,0.0,0 STARLINK-4254,1 52998U 22076N   24181.46343798  .00000389  00000-0  42520-4 0  9997,2 52998  53.2180 349.3629 0001608  77.1580 282.9592 15.08826807109982,6917.921,95.438,540.898,538.673,0.0
52998.0,STARLINK-4254,PAYLOAD,2024-06-29 17:28:53,15.08827292,0.0001198,53.2171,348.1735,77.7415,282.3711,5.0693e-05,5.19e-06,0.0,0 STARLINK-4254,1 52998U 22076N   24181.72839920  .00000519  00000-0  50693-4 0  9998,2 52998  53.2171 348.1735 0001198  77.7415 282.3711 15.08827292109553,6917.919,95.438,540.613,538.955,0.0
52998.0,STARLINK-4254,PAYLOAD,2024-06-30 04:36:34,15.08844994,0.0001298,53.2185,346.0898,86.5796,273.5345,5.8964e-05,6.51e-06,0.0,0 STARLINK-4254,1 52998U 22076N   24182.19206756  .00000651  00000-0  58964-4 0  9991,2 52998  53.2185 346.0898 0001298  86.5796 273.5345 15.08844994110090,6917.865,95.437,540.628,538.832,0.0
52998.0,STARLINK-4254,PAYLOAD,2024-06-30 10:58:07,15.08833907,0.0001384,53.219,344.8998,96.5484,263.5665,9.3651e-05,1.203e-05,0.0,0 STARLINK-4254,1 52998U 22076N   24182.45703338  .00001203  00000-0  93651-4 0  9994,2 52998  53.2190 344.8998 0001384  96.5484 263.5665 15.08833907110135,6917.899,95.438,540.721,538.807,0.0
52998.0,STARLINK-4254,PAYLOAD,2024-06-30 14:08:53,15.08838219,0.0001404,53.2178,344.306,91.5492,268.5661,1.7066e-05,-1.6e-07,0.0,0 STARLINK-4254,1 52998U 22076N   24182.58951181 -.00000016  00000-0  17066-4 0  9997,2 52998  53.2178 344.3060 0001404  91.5492 268.5661 15.08838219109683,6917.886,95.438,540.722,538.78,0.0
52998.0,STARLINK-4254,PAYLOAD,2024-06-30 17:19:39,15.0884656,0.000122,53.2182,343.7117,92.0738,268.0394,-5.0045e-05,-1.084e-05,0.0,0 STARLINK-4254,1 52998U 22076N   24182.72199049 -.00001084  00000-0 -50045-4 0  9991,2 52998  53.2182 343.7117 0001220  92.0738 268.0394 15.08846560110171,6917.86,95.437,540.569,538.881,0.0
52998.0,STARLINK-4254,PAYLOAD,2024-07-01 10:48:54,15.08833469,0.0001282,53.2185,340.4415,79.8445,280.2691,0.00028379,4.231e-05,0.0,0 STARLINK-4254,1 52998U 22076N   24183.45063497  .00004231  00000-0  28379-3 0  9998,2 52998  53.2185 340.4415 0001282  79.8445 280.2691 15.08833469110287,6917.9,95.438,540.652,538.878,0.0
52998.0,STARLINK-4254,PAYLOAD,2024-07-01 13:59:41,15.08830339,0.0001527,53.2176,339.8445,78.6886,281.4277,0.00011723,1.578e-05,0.0,0 STARLINK-4254,1 52998U 22076N   24183.58311734  .00001578  00000-0  11723-3 0  9998,2 52998  53.2176 339.8445 0001527  78.6886 281.4277 15.08830339109835,6917.91,95.438,540.831,538.719,0.0
52998.0,STARLINK-4254,PAYLOAD,2024-07-01 20:21:13,15.08834065,0.0001114,53.2175,338.6535,77.8577,282.2539,6.6598e-05,7.72e-06,0.0,0 STARLINK-4254,1 52998U 22076N   24183.84807534  .00000772  00000-0  66598-4 0  9991,2 52998  53.2175 338.6535 0001114  77.8577 282.2539 15.08834065109875,6917.899,95.438,540.534,538.993,0.0
52998.0,STARLINK-4254,PAYLOAD,2024-07-02 13:50:28,15.08830524,0.0001139,53.2162,335.385,81.2513,278.8608,6.1915e-05,6.97e-06,0.0,0 STARLINK-4254,1 52998U 22076N   24184.57672045  .00000697  00000-0  61915-4 0  9993,2 52998  53.2162 335.3850 0001139  81.2513 278.8608 15.08830524109987,6917.909,95.438,540.562,538.986,0.0
52998.0,STARLINK-4254,PAYLOAD,2024-07-02 20:12:00,15.08838319,0.0001014,53.2177,334.1954,83.0624,277.0484,5.6442e-05,6.11e-06,0.0,0 STARLINK-4254,1 52998U 22076N   24184.84167601  .00000611  00000-0  56442-4 0  9995,2 52998  53.2177 334.1954 0001014  83.0624 277.0484 15.08838319110491,6917.886,95.438,540.452,539.049,0.0
